STARLINK-4758           
1 53820U 22114C   22276.58334491  .00131088  00000+0  92928-3 0  9997
2 53820  53.2146 186.8461 0001183 112.1564 157.8826 15.73064661  1308
STARLINK-4752           
1 53821U 22114D   22276.58334491 -.00038546  00000+0 -26926-3 0  9990
2 53821  53.2146 186.8432 0000686  99.4187 171.7291 15.73392034  1301
STARLINK-4713           
1 53822U 22114E   22276.60310428  .00662432  11598-4  51989-3 0  9999
2 53822  53.2121 184.5576 0050361  98.8576 261.8167 16.11038043  2897
STARLINK-4748           
1 53823U 22114F   22276.58334491  .00241704  32123-4  83058-3 0  9997
2 53823  53.2128 185.7751 0017590  93.9036 335.2786 15.88964393  1304
STARLINK-4757           
1 53824U 22114G   22276.58334491 -.00076857  00000+0 -54235-3 0  9994
2 53824  53.2162 186.8458 0001113  76.7502 196.1335 15.73449880  1307
STARLINK-4751           
1 53825U 22114H   22276.58334491 -.00007352  00000+0 -47886-4 0  9994
2 53825  53.2148 186.8413 0001074  81.6408 190.9680 15.73260815  1303
STARLINK-4756           
1 53826U 22114J   22276.58334491  .00112405  00000+0  79809-3 0  9998
2 53826  53.2148 186.8349 0001255 125.8894 150.0784 15.73098380  1301
STARLINK-4764           
1 53827U 22114K   22276.58334491  .00000961  00000+0  11245-4 0  9993
2 53827  53.2146 186.8377 0001353  48.8348 225.0009 15.73251990  1309
STARLINK-4760           
1 53828U 22114L   22276.58334491  .00009098  00000+0  68899-4 0  9991
2 53828  53.2146 186.8342 0000826  94.5643 181.4935 15.73291373  1304
STARLINK-4759           
1 53829U 22114M   22276.58334491  .00009373  00000+0  71061-4 0  9993
2 53829  53.2156 186.8409 0001353  54.9957 219.4845 15.73220542  1306
STARLINK-4761           
1 53830U 22114N   22276.58334491  .00050930  00000+0  36493-3 0  9999
2 53830  53.2148 186.8316 0001037  96.2234 181.2349 15.73211059  1300
STARLINK-4649           
1 53831U 22114P   22276.58334491 -.00014088  00000+0 -95947-4 0  9996
2 53831  53.2147 186.8367 0000987 103.1536 171.9197 15.73245442  1302
STARLINK-4747           
1 53832U 22114Q   22276.58334491  .00074962  00000+0  53359-3 0  9992
2 53832  53.2145 186.8288 0001009  93.9416 184.6871 15.73208177  1306
STARLINK-4771           
1 53833U 22114R   22276.58334491  .00008505  00000+0  64774-4 0  9997
2 53833  53.2141 186.8308 0001057  95.7836 181.0269 15.73265372  1307
STARLINK-4737           
1 53834U 22114S   22276.58334491 -.00030468  00000+0 -21125-3 0  9995
2 53834  53.2148 186.8284 0001170 114.4247 164.8114 15.73440785  1300
STARLINK-4783           
1 53835U 22114T   22276.58334491 -.00033582  00000+0 -23677-3 0  9990
2 53835  53.2141 186.8277 0000971  70.9958 207.5492 15.73106517  1305
STARLINK-4778           
1 53836U 22114U   22276.58334491  .00021666  00000+0  15809-3 0  9997
2 53836  53.2158 186.8223 0000839  82.8304 198.1707 15.73244068  1303
STARLINK-4776           
1 53837U 22114V   22276.58334491  .00060466  00000+0  43230-3 0  9998
2 53837  53.2149 186.8295 0001101 100.4749 178.7257 15.73191606  1309
STARLINK-4773           
1 53838U 22114W   22276.58334491 -.00040405  00000+0 -28415-3 0  9990
2 53838  53.2148 186.8243 0000977  84.7885 196.7801 15.73258285  1309
STARLINK-4784           
1 53839U 22114X   22276.58334491  .00022963  00000+0  16730-3 0  9995
2 53839  53.2151 186.8275 0000892  83.6080 196.7851 15.73238922  1301
STARLINK-4766           
1 53840U 22114Y   22276.58334491  .00024559  00000+0  17842-3 0  9995
2 53840  53.2141 186.8186 0001126  98.7763 184.5756 15.73261744  1306
STARLINK-4750           
1 53841U 22114Z   22276.58334491  .00074146  00000+0  52811-3 0  9998
2 53841  53.2147 186.8222 0000990  91.7364 190.4987 15.73197977  1300
STARLINK-4754           
1 53842U 22114AA  22276.58334491 -.00039716  00000+0 -27902-3 0  9998
2 53842  53.2143 186.8164 0001001  82.9290 201.5975 15.73273620  1307
STARLINK-4769           
1 53843U 22114AB  22276.58334491  .00030298  00000+0  21898-3 0  9991
2 53843  53.2158 186.8177 0000847  87.7718 194.9799 15.73257412  1303
STARLINK-4745           
1 53844U 22114AC  22276.58334491 -.00024033  00000+0 -16700-3 0  9990
2 53844  53.2146 186.8151 0001175  81.4944 204.2577 15.73242506  1307
STARLINK-4753           
1 53845U 22114AD  22276.58334491 -.00011657  00000+0 -78507-4 0  9993
2 53845  53.2152 186.8211 0000971  81.9299 201.9889 15.73272638  1302
STARLINK-4746           
1 53846U 22114AE  22276.58334491 -.00025106  00000+0 -17445-3 0  9991
2 53846  53.2151 186.8153 0001080 109.4500 177.4836 15.73273568  1302
STARLINK-4777           
1 53847U 22114AF  22276.58334491 -.00041726  00000+0 -29352-3 0  9998
2 53847  53.2144 186.8152 0001033  92.7973 192.3439 15.73266566  1305
STARLINK-4780           
1 53848U 22114AG  22276.58334491 -.00043583  00000+0 -30717-3 0  9999
2 53848  53.2144 186.8099 0001136 100.7898 187.3810 15.73242193  1303
STARLINK-4770           
1 53849U 22114AH  22276.58334491 -.00002485  00000+0 -13276-4 0  9998
2 53849  53.2152 186.8164 0001127  92.5058 193.8890 15.73232171  1307
STARLINK-4767           
1 53850U 22114AJ  22276.58334491  .00000777  00000+0  99240-5 0  9996
2 53850  53.2143 186.8065 0000988  88.8454 201.0333 15.73263933  1305
STARLINK-4755           
1 53851U 22114AK  22276.58334491 -.00007767  00000+0 -50882-4 0  9993
2 53851  53.2145 186.8118 0001075 108.0610 179.4540 15.73243117  1304
STARLINK-4797           
1 53852U 22114AL  22276.58334491  .00000741  00000+0  96834-5 0  9995
2 53852  53.2148 186.8057 0001054  97.3261 193.8224 15.73224457  1304
STARLINK-4794           
1 53853U 22114AM  22276.58334491  .00027855  00000+0  20203-3 0  9996
2 53853  53.2155 186.8127 0001068  96.0562 192.6595 15.73222733  1309
STARLINK-4800           
1 53854U 22114AN  22276.58334491 -.00007802  00000+0 -51167-4 0  9993
2 53854  53.2151 186.8046 0000802 101.7949 190.5787 15.73228458  1304
STARLINK-4703           
1 53855U 22114AP  22276.58334491  .00009540  00000+0  72080-4 0  9990
2 53855  53.2140 186.8063 0001140  98.2599 191.0571 15.73275270  1300
STARLINK-4795           
1 53856U 22114AQ  22276.58334491  .00001363  00000+0  14105-4 0  9990
2 53856  53.2139 186.7946 0000996 107.1668 188.1329 15.73232457  1301
STARLINK-4809           
1 53857U 22114AR  22276.58334491 -.00000527  00000+0  66178-6 0  9992
2 53857  53.2143 186.8052 0000873 104.5510 185.9347 15.73268711  1304
STARLINK-4798           
1 53858U 22114AS  22276.58334491 -.00017068  00000+0 -11716-3 0  9997
2 53858  53.2148 186.8021 0001027 100.8082 192.1067 15.73255728  1304
STARLINK-4790           
1 53859U 22114AT  22276.58334491 -.00024787  00000+0 -17213-3 0  9992
2 53859  53.2142 186.8020 0000919 100.7169 190.9844 15.73279185  1304
STARLINK-4799           
1 53860U 22114AU  22276.58334491  .00018161  00000+0  13339-3 0  9996
2 53860  53.2140 186.7960 0001086  96.8166 197.8997 15.73225076  1309
STARLINK-4781           
1 53861U 22114AV  22276.58334491 -.00002781  00000+0 -15393-4 0  9993
2 53861  53.2141 186.7982 0001046  94.5444 198.9463 15.73218034  1301
STARLINK-4792           
1 53862U 22114AW  22276.58334491  .00033901  00000+0  24456-3 0  9999
2 53862  53.2142 186.7950 0001013  90.8507 205.0376 15.73240973  1301
STARLINK-4788           
1 53863U 22114AX  22276.58334491  .00001544  00000+0  15387-4 0  9992
2 53863  53.2141 186.7967 0001116  80.9042 213.1899 15.73245420  1309
STARLINK-4779           
1 53864U 22114AY  22276.58334491 -.00010143  00000+0 -67935-4 0  9996
2 53864  53.2140 186.7915 0001059  91.8285 205.2802 15.73202657  1309
STARLINK-4785           
1 53865U 22114AZ  22276.58334491 -.00035046  00000+0 -24585-3 0  9999
2 53865  53.2142 186.7931 0000920  95.7311 200.7355 15.73245705  1303
STARLINK-4762           
1 53866U 22114BA  22276.58334491  .00016118  00000+0  11890-3 0  9992
2 53866  53.2139 186.7880 0001180  94.8412 204.0543 15.73226794  1307
STARLINK-4793           
1 53867U 22114BB  22276.58334491 -.00006438  00000+0 -41422-4 0  9994
2 53867  53.2157 186.7896 0000864 102.5589 195.2123 15.73238213  1309
STARLINK-4789           
1 53868U 22114BC  22276.58334491  .00140900  00000+0  96882-3 0  9995
2 53868  53.2151 186.7812 0001390 123.0438 181.3592 15.73742607  1301
STARLINK-4810           
1 53869U 22114BD  22276.58334491  .00014621  00000+0  10832-3 0  9997
2 53869  53.2144 186.7898 0001119  82.2571 216.0583 15.73219881  1300
STARLINK-4732           
1 53870U 22114BE  22276.58334491  .00016517  00000+0  12169-3 0  9990
2 53870  53.2143 186.7868 0001034  94.3356 205.7418 15.73234673  1307
STARLINK-4740           
1 53871U 22114BF  22276.58334491  .00004370  00000+0  35470-4 0  9996
2 53871  53.2142 186.7849 0000984 100.4585 200.1910 15.73244727  1309
FALCON 9 DEB            
1 53872U 22114BG  22276.20743099  .02496399  11844-4  97082-3 0  9991
2 53872  53.2135 186.3570 0036596 105.0111 255.4985 16.21321608  3386
FALCON 9 DEB            
1 53873U 22114BH  22276.20483670  .02295619  11827-4  96182-3 0  9991
2 53873  53.2053 186.3289 0035026 104.4542 256.0389 16.20595452  3385
FALCON 9 DEB            
1 53874U 22114BJ  22276.13265749  .02297667  11864-4  89354-3 0  9998
2 53874  53.2132 186.5803 0032822  97.0873 263.3902 16.21685554  3378
FALCON 9 DEB            
1 53875U 22114BK  22276.19012377  .02754405  11921-4  89788-3 0  9995
2 53875  53.2139 186.2239 0029959  98.1118 262.3324 16.23977546  3382
CHUANGXIN 16B (CX-16B)  
1 53876U 22102B   22276.57520808  .00006854  00000+0  65043-3 0  9993
2 53876  28.9982 102.3068 0004895 319.6696  40.3536 14.91841492  2067
YUNHAI-1 03             
1 53877U 22115A   22276.49781787  .00000211  00000+0  93100-4 0  9991
2 53877  98.4978 274.9847 0001481  91.4270 268.7087 14.32794411  1808
CZ-2D R/B               
1 53878U 22115B   22276.48871464  .00000814  00000+0  13628-3 0  9998
2 53878  98.5449 275.7677 0124303   4.1133 356.1062 14.67937966  1842
